*******************************************************************************
 Revised: July 31, 2013                  Sun                                 10

 PHYSICAL PROPERTIES (updated 2018-Aug-15):
  GM, km^3/s^2          = 132712440041.93938  Mass, 10^24 kg        = ~1988500
  Vol. mean radius, km  = 695700              Volume, 10^12 km^3    = 1412000
  Solar radius (IAU)    = 696000 km           Mean density, g/cm^3  = 1.408
  Radius (photosphere)  = 696500 km           Angular diam at 1 AU  = 1919.3"
  Photosphere temp., K  = 6600 (bottom)       Photosphere temp., K  = 4400(top)
  Photospheric depth    = ~500 km             Chromospheric depth   = ~2500 km
  Flatness, f           = 0.00005             Adopted sid. rot. per.= 25.38 d
  Surface gravity       =  274.0 m/s^2        Escape speed, km/s    =  617.7
  Pole (RA,DEC), deg.   = (286.13, 63.87)     Obliquity to ecliptic = 7.25 deg.
  Solar constant (1 AU) = 1367.6 W/m^2        Luminosity, 10^24 J/s = 382.8
  Mass-energy conv rate = 4.260 x 10^9 kg/s   Effective temp, K     = 5772
  Sunspot cycle         = 11.4 yr             Cycle 24 sunspot min. = 2008 A.D.

  Motion relative to nearby stars = apex : R.A.= 271 deg.; DEC.= +30 deg.
                                    speed: 19.4 km/s (0.0112 au/day)
  Motion relative to 2.73K BB/CBR = apex : l= 264.7 +- 0.8; b= 48.2 +- 0.5 deg.
                                    speed: 369 +-11 km/s
*******************************************************************************


*******************************************************************************
Ephemeris / WWW_USER Sat Jan  8 06:02:04 2022 Pasadena, USA      / Horizons    
*******************************************************************************
Target body name: Sun (10)                        {source: DE441}
Center body name: Earth (399)                     {source: DE441}
Center-site name: (user defined site below)
*******************************************************************************
Start time      : A.D. 2022-Jan-08 00:00:00.0000 UT      
Stop  time      : A.D. 2022-Feb-07 00:00:00.0000 UT      
Step-size       : 5 minutes
*******************************************************************************
Target pole/equ : IAU_SUN                         {East-longitude positive}
Target radii    : 696000.0 x 696000.0 x 696000.0 k{Equator, meridian, pole}    
Center geodetic : 301.500100,-34.333200,1.059E-12 {E-lon(deg),Lat(deg),Alt(km)}
Center cylindric: 301.500100,5272.50139,-3577.028 {E-lon(deg),Dxy(km),Dz(km)}
Center pole/equ : ITRF93                          {East-longitude positive}
Center radii    : 6378.1 x 6378.1 x 6356.8 km     {Equator, meridian, pole}    
Target primary  : Sun
Vis. interferer : MOON (R_eq= 1737.400) km        {source: DE441}
Rel. light bend : Sun, EARTH                      {source: DE441}
Rel. lght bnd GM: 1.3271E+11, 3.9860E+05 km^3/s^2                              
Atmos refraction: NO (AIRLESS)
RA format       : HMS
Time format     : CAL 
RTS-only print  : NO       
EOP file        : eop.220106.p220401                                           
EOP coverage    : DATA-BASED 1962-JAN-20 TO 2022-JAN-06. PREDICTS-> 2022-MAR-31
Units conversion: 1 au= 149597870.700 km, c= 299792.458 km/s, 1 day= 86400.0 s 
Table cut-offs 1: Elevation (-90.0deg=NO ),Airmass (>38.000=NO), Daylight (NO )
Table cut-offs 2: Solar elongation (  0.0,180.0=NO ),Local Hour Angle( 0.0=NO )
Table cut-offs 3: RA/DEC angular rate (     0.0=NO )                           
Table format    : Comma Separated Values (spreadsheet)
*******************************************************************************
 Date__(UT)__HR:MN, , ,Azi_(a-app), Elev_(a-app),
*************************************************
$$SOE
 2022-Jan-20 22:00,*, , 253.953561,    12.116723,
 2022-Jan-20 22:05,*, , 253.309162,    11.126123,
 2022-Jan-20 22:10,*, , 252.661636,    10.138863,
 2022-Jan-20 22:15,*, , 252.010644,     9.155084,
 2022-Jan-20 22:20,*, , 251.355846,     8.174935,
 2022-Jan-20 22:25,*, , 250.696906,     7.198565,
 2022-Jan-20 22:30,*, , 250.033487,     6.226128,
 2022-Jan-20 22:35,*, , 249.365254,     5.257784,
 2022-Jan-20 22:40,*, , 248.691874,     4.293694,
 2022-Jan-20 22:45,*, , 248.013011,     3.334026,
 2022-Jan-20 22:50,*, , 247.328329,     2.378953,
 2022-Jan-20 22:55,*, , 246.637494,     1.428650,
 2022-Jan-20 23:00,*, , 245.940167,     0.483302,
 2022-Jan-20 23:05,*, , 245.236011,    -0.456905,
 2022-Jan-20 23:10,C,s, 244.524685,    -1.391776,
 2022-Jan-20 23:15,C, , 243.805848,    -2.321111,
 2022-Jan-20 23:20,C, , 243.079155,    -3.244703,
 2022-Jan-20 23:25,C, , 242.344263,    -4.162340,
 2022-Jan-20 23:30,C, , 241.600822,    -5.073802,
 2022-Jan-20 23:35,C, , 240.848484,    -5.978861,
 2022-Jan-20 23:40,N, , 240.086897,    -6.877283,
 2022-Jan-20 23:45,N, , 239.315708,    -7.768826,
 2022-Jan-20 23:50,N, , 238.534562,    -8.653239,
 2022-Jan-20 23:55,N, , 237.743101,    -9.530265,
 2022-Jan-21 00:00,N, , 236.940968,   -10.399635,
 2022-Jan-21 00:05,N, , 236.127805,   -11.261075,
 2022-Jan-21 00:10,A, , 235.303252,   -12.114300,
 2022-Jan-21 00:15,A, , 234.466951,   -12.959015,
 2022-Jan-21 00:20,A, , 233.618543,   -13.794918,
 2022-Jan-21 00:25,A, , 232.757670,   -14.621696,
 2022-Jan-21 00:30,A, , 231.883979,   -15.439025,
 2022-Jan-21 00:35,A, , 230.997116,   -16.246573,
 2022-Jan-21 00:40,A, , 230.096736,   -17.043996,
 2022-Jan-21 00:45,A, , 229.182494,   -17.830942,
 2022-Jan-21 00:50, , , 228.254054,   -18.607046,
 2022-Jan-21 00:55, , , 227.311089,   -19.371934,
 2022-Jan-21 01:00, , , 226.353279,   -20.125222,
 2022-Jan-21 01:05, , , 225.380315,   -20.866513,
 2022-Jan-21 01:10, , , 224.391902,   -21.595404,
 2022-Jan-21 01:15, ,m, 223.387758,   -22.311478,
 2022-Jan-21 01:20, ,m, 222.367620,   -23.014310,
 2022-Jan-21 01:25, ,m, 221.331241,   -23.703464,
 2022-Jan-21 01:30, ,m, 220.278397,   -24.378495,
 2022-Jan-21 01:35, ,m, 219.208887,   -25.038951,
 2022-Jan-21 01:40, ,m, 218.122536,   -25.684369,
 2022-Jan-21 01:45, ,m, 217.019198,   -26.314279,
 2022-Jan-21 01:50, ,m, 215.898759,   -26.928205,
 2022-Jan-21 01:55, ,m, 214.761137,   -27.525664,
 2022-Jan-21 02:00, ,m, 213.606291,   -28.106168,
 2022-Jan-21 02:05, ,m, 212.434218,   -28.669225,
 2022-Jan-21 02:10, ,m, 211.244958,   -29.214339,
 2022-Jan-21 02:15, ,m, 210.038599,   -29.741014,
 2022-Jan-21 02:20, ,m, 208.815275,   -30.248751,
 2022-Jan-21 02:25, ,m, 207.575173,   -30.737057,
 2022-Jan-21 02:30, ,m, 206.318535,   -31.205436,
 2022-Jan-21 02:35, ,m, 205.045656,   -31.653402,
 2022-Jan-21 02:40, ,m, 203.756892,   -32.080473,
 2022-Jan-21 02:45, ,m, 202.452659,   -32.486175,
 2022-Jan-21 02:50, ,m, 201.133432,   -32.870047,
 2022-Jan-21 02:55, ,m, 199.799749,   -33.231639,
 2022-Jan-21 03:00, ,m, 198.452211,   -33.570516,
 2022-Jan-21 03:05, ,m, 197.091480,   -33.886260,
 2022-Jan-21 03:10, ,m, 195.718281,   -34.178475,
 2022-Jan-21 03:15, ,m, 194.333397,   -34.446783,
 2022-Jan-21 03:20, ,m, 192.937672,   -34.690832,
 2022-Jan-21 03:25, ,m, 191.532003,   -34.910296,
 2022-Jan-21 03:30, ,m, 190.117340,   -35.104876,
 2022-Jan-21 03:35, ,m, 188.694683,   -35.274304,
 2022-Jan-21 03:40, ,m, 187.265074,   -35.418341,
 2022-Jan-21 03:45, ,m, 185.829596,   -35.536785,
 2022-Jan-21 03:50, ,m, 184.389363,   -35.629466,
 2022-Jan-21 03:55, ,m, 182.945517,   -35.696250,
 2022-Jan-21 04:00, ,m, 181.499224,   -35.737042,
 2022-Jan-21 04:05, ,m, 180.051661,   -35.751781,
 2022-Jan-21 04:10, ,m, 178.604013,   -35.740446,
 2022-Jan-21 04:15, ,m, 177.157467,   -35.703053,
 2022-Jan-21 04:20, ,m, 175.713201,   -35.639658,
 2022-Jan-21 04:25, ,m, 174.272382,   -35.550351,
 2022-Jan-21 04:30, ,m, 172.836156,   -35.435262,
 2022-Jan-21 04:35, ,m, 171.405642,   -35.294555,
 2022-Jan-21 04:40, ,m, 169.981926,   -35.128429,
 2022-Jan-21 04:45, ,m, 168.566056,   -34.937118,
 2022-Jan-21 04:50, ,m, 167.159038,   -34.720886,
 2022-Jan-21 04:55, ,m, 165.761829,   -34.480027,
 2022-Jan-21 05:00, ,m, 164.375332,   -34.214866,
 2022-Jan-21 05:05, ,m, 163.000399,   -33.925750,
 2022-Jan-21 05:10, ,m, 161.637821,   -33.613053,
 2022-Jan-21 05:15, ,m, 160.288329,   -33.277171,
 2022-Jan-21 05:20, ,m, 158.952595,   -32.918519,
 2022-Jan-21 05:25, ,m, 157.631228,   -32.537528,
 2022-Jan-21 05:30, ,m, 156.324772,   -32.134647,
 2022-Jan-21 05:35, ,m, 155.033713,   -31.710336,
 2022-Jan-21 05:40, ,m, 153.758473,   -31.265068,
 2022-Jan-21 05:45, ,m, 152.499415,   -30.799322,
 2022-Jan-21 05:50, ,m, 151.256842,   -30.313586,
 2022-Jan-21 05:55, ,m, 150.031004,   -29.808353,
 2022-Jan-21 06:00, ,m, 148.822093,   -29.284119,
 2022-Jan-21 06:05, ,m, 147.630251,   -28.741380,
 2022-Jan-21 06:10, ,m, 146.455572,   -28.180633,
 2022-Jan-21 06:15, ,m, 145.298100,   -27.602374,
 2022-Jan-21 06:20, ,m, 144.157838,   -27.007097,
 2022-Jan-21 06:25, ,m, 143.034750,   -26.395288,
 2022-Jan-21 06:30, ,m, 141.928759,   -25.767434,
 2022-Jan-21 06:35, ,m, 140.839754,   -25.124009,
 2022-Jan-21 06:40, ,m, 139.767594,   -24.465487,
 2022-Jan-21 06:45, ,m, 138.712106,   -23.792329,
 2022-Jan-21 06:50, ,m, 137.673093,   -23.104990,
 2022-Jan-21 06:55, ,m, 136.650332,   -22.403916,
 2022-Jan-21 07:00, ,m, 135.643580,   -21.689544,
 2022-Jan-21 07:05, ,m, 134.652575,   -20.962301,
 2022-Jan-21 07:10, ,m, 133.677037,   -20.222604,
 2022-Jan-21 07:15, ,m, 132.716672,   -19.470860,
 2022-Jan-21 07:20, ,m, 131.771172,   -18.707465,
 2022-Jan-21 07:25,A,m, 130.840220,   -17.932805,
 2022-Jan-21 07:30,A,m, 129.923486,   -17.147257,
 2022-Jan-21 07:35,A,m, 129.020637,   -16.351185,
 2022-Jan-21 07:40,A,m, 128.131328,   -15.544945,
 2022-Jan-21 07:45,A,m, 127.255212,   -14.728880,
 2022-Jan-21 07:50,A,m, 126.391938,   -13.903326,
 2022-Jan-21 07:55,A,m, 125.541150,   -13.068606,
 2022-Jan-21 08:00,A,m, 124.702491,   -12.225036,
 2022-Jan-21 08:05,N,m, 123.875602,   -11.372919,
 2022-Jan-21 08:10,N,m, 123.060123,   -10.512551,
 2022-Jan-21 08:15,N,m, 122.255694,    -9.644219,
